{
  "type": "FeatureCollection",
  "features": [
    {
      "type": "Feature",
      "properties": {
        "name": "Neckar-Schifffahrtskanal",
        "extent": "km 116,92–119,98",
        "bank": "rechtes Ufer befischbar, linkes gesperrt",
        "quality": "silber",
        "verified": false,
        "source": "Hege6-Vereinskarte (km/Ufer) + OSM volle Auflösung, auf Extent zugeschnitten",
        "note": "Mittellinie im offiziellen km-Bereich. Bitte auf Satellit prüfen; exakte Uferlinie final via QGIS-Georeferenzierung."
      },
      "geometry": {
        "type": "LineString",
        "coordinates": [
          [
            9.15478,
            49.098056
          ],
          [
            9.154742,
            49.09812
          ],
          [
            9.153782,
            49.099617
          ],
          [
            9.153515,
            49.100125
          ],
          [
            9.153424,
            49.100326
          ],
          [
            9.15292,
            49.101712
          ],
          [
            9.152828,
            49.102234
          ],
          [
            9.152803,
            49.103475
          ],
          [
            9.15284,
            49.104462
          ],
          [
            9.153093,
            49.105344
          ],
          [
            9.153697,
            49.106977
          ],
          [
            9.153996,
            49.107598
          ],
          [
            9.155075,
            49.10941
          ],
          [
            9.156408,
            49.11075
          ],
          [
            9.15679,
            49.111138
          ],
          [
            9.158277,
            49.112635
          ],
          [
            9.159695,
            49.11406
          ],
          [
            9.161547,
            49.115788
          ],
          [
            9.164378,
            49.116864
          ],
          [
            9.164539,
            49.117031
          ],
          [
            9.164749,
            49.117101
          ],
          [
            9.166166,
            49.117656
          ],
          [
            9.166321,
            49.11771
          ],
          [
            9.166482,
            49.117778
          ],
          [
            9.166698,
            49.117773
          ],
          [
            9.168449,
            49.118546
          ],
          [
            9.171774,
            49.118846
          ],
          [
            9.172321,
            49.118887
          ],
          [
            9.172584,
            49.118909
          ]
        ]
      }
    }
  ]
}
