{
  "type": "FeatureCollection",
  "features": [
    {
      "type": "Feature",
      "properties": {
        "name": "Enz",
        "extent": "ab Mündung ca. 320 m / ab B27 ca. 150 m",
        "bank": "laut Vereinskarte",
        "quality": "silber",
        "verified": false,
        "source": "Hege6-Vereinskarte (km/Ufer) + OSM volle Auflösung, auf Extent zugeschnitten",
        "note": "Mittellinie im offiziellen km-Bereich. Bitte auf Satellit prüfen; exakte Uferlinie final via QGIS-Georeferenzierung."
      },
      "geometry": {
        "type": "LineString",
        "coordinates": [
          [
            9.144649,
            49.005083
          ],
          [
            9.14584,
            49.005232
          ],
          [
            9.147701,
            49.005749
          ],
          [
            9.14913,
            49.006168
          ]
        ]
      }
    }
  ]
}
