{"type":"FeatureCollection","features":[{"type":"Feature","properties":{"osm_id":14858790,"name":"Neckar","waterway":"river","verified":false,"source":"OSM snapshot 2026-07-28"},"geometry":{"type":"LineString","coordinates":[[9.182454,49.120211],[9.190117,49.120868],[9.191618,49.121246],[9.193413,49.122122],[9.194872,49.123148],[9.196011,49.124125],[9.197905,49.127381],[9.198511,49.128972],[9.199573,49.133634]]}},{"type":"Feature","properties":{"osm_id":92411047,"name":"Neckar","waterway":"river","verified":false,"source":"OSM snapshot 2026-07-28"},"geometry":{"type":"LineString","coordinates":[[9.199619,49.1353],[9.19988,49.13697]]}},{"type":"Feature","properties":{"osm_id":92411077,"name":"Neckar","waterway":"river","verified":false,"source":"OSM snapshot 2026-07-28"},"geometry":{"type":"LineString","coordinates":[[9.199573,49.133634],[9.199619,49.1353],[9.200105,49.13695]]}},{"type":"Feature","properties":{"osm_id":166364593,"name":"Neckar","waterway":"river","verified":false,"source":"OSM snapshot 2026-07-28"},"geometry":{"type":"LineString","coordinates":[[9.200105,49.13695],[9.200343,49.138043]]}},{"type":"Feature","properties":{"osm_id":166364596,"name":"Neckar","waterway":"river","verified":false,"source":"OSM snapshot 2026-07-28"},"geometry":{"type":"LineString","coordinates":[[9.19988,49.13697],[9.200109,49.138069]]}},{"type":"Feature","properties":{"osm_id":166364597,"name":"Neckar","waterway":"river","verified":false,"source":"OSM snapshot 2026-07-28"},"geometry":{"type":"LineString","coordinates":[[9.200109,49.138069],[9.200849,49.140638]]}},{"type":"Feature","properties":{"osm_id":166364599,"name":"Neckar","waterway":"river","verified":false,"source":"OSM snapshot 2026-07-28"},"geometry":{"type":"LineString","coordinates":[[9.200343,49.138043],[9.201084,49.141585],[9.201609,49.142665]]}},{"type":"Feature","properties":{"osm_id":320699468,"name":"Neckar","waterway":"river","verified":false,"source":"OSM snapshot 2026-07-28"},"geometry":{"type":"LineString","coordinates":[[9.199573,49.133634],[9.201609,49.142665]]}},{"type":"Feature","properties":{"osm_id":320699472,"name":"Neckar","waterway":"river","verified":false,"source":"OSM snapshot 2026-07-28"},"geometry":{"type":"LineString","coordinates":[[9.201609,49.142665],[9.205933,49.162601],[9.206165,49.165222],[9.205906,49.167824]]}},{"type":"Feature","properties":{"osm_id":1190767361,"name":"Neckar","waterway":"river","verified":false,"source":"OSM snapshot 2026-07-28"},"geometry":{"type":"LineString","coordinates":[[9.19913,49.131495],[9.201737,49.132401],[9.207001,49.133664],[9.20801,49.134062],[9.208972,49.134833],[9.211305,49.137287],[9.214688,49.140354],[9.21522,49.141466],[9.215942,49.142378],[9.216478,49.14367],[9.216386,49.144089],[9.215403,49.144932]]}}]}