{"type":"FeatureCollection","features":[{"type":"Feature","properties":{"osm_id":62125451,"name":"Neckar","waterway":"canal","verified":false,"source":"OSM snapshot 2026-07-28"},"geometry":{"type":"LineString","coordinates":[[9.165781,49.070133],[9.1627,49.072129]]}},{"type":"Feature","properties":{"osm_id":140677878,"name":"Neckarkanal Besigheim","waterway":"canal","verified":false,"source":"OSM snapshot 2026-07-28"},"geometry":{"type":"LineString","coordinates":[[9.151185,49.001284],[9.150321,49.001724],[9.149405,49.002904],[9.149254,49.004454],[9.149923,49.005408],[9.152927,49.007043]]}},{"type":"Feature","properties":{"osm_id":140677879,"name":"Neckar","waterway":"canal","verified":false,"source":"OSM snapshot 2026-07-28"},"geometry":{"type":"LineString","coordinates":[[9.166688,49.069036],[9.165781,49.070133],[9.16287,49.072239]]}},{"type":"Feature","properties":{"osm_id":140677882,"name":"Neckar","waterway":"river","verified":false,"source":"OSM snapshot 2026-07-28"},"geometry":{"type":"LineString","coordinates":[[9.160401,49.072751],[9.155836,49.075926],[9.155198,49.077289],[9.155235,49.078109],[9.155763,49.079177],[9.156828,49.079479],[9.159344,49.079419],[9.161265,49.079138]]}},{"type":"Feature","properties":{"osm_id":140677883,"name":"Neckar","waterway":"river","verified":false,"source":"OSM snapshot 2026-07-28"},"geometry":{"type":"LineString","coordinates":[[9.156857,49.021206],[9.152175,49.025386],[9.1515,49.026672],[9.151104,49.028243],[9.151098,49.032895],[9.152054,49.038704],[9.151674,49.044062],[9.15055,49.047598],[9.15072,49.048725],[9.151205,49.049507],[9.152147,49.050002],[9.152952,49.05018],[9.155193,49.050216],[9.157007,49.049786],[9.158003,49.049088],[9.158647,49.047925],[9.159084,49.045929],[9.159526,49.044622],[9.160047,49.043756],[9.161169,49.042862],[9.163609,49.041635],[9.164948,49.041281],[9.166302,49.041182],[9.167317,49.041327],[9.17005,49.042757],[9.171034,49.043638],[9.172212,49.045453],[9.174653,49.050788],[9.17583,49.054453],[9.178282,49.05779],[9.178771,49.059266],[9.178577,49.060641],[9.177567,49.06221],[9.176079,49.063482],[9.166688,49.069036]]}},{"type":"Feature","properties":{"osm_id":142891027,"name":"Neckar","waterway":"river","verified":false,"source":"OSM snapshot 2026-07-28"},"geometry":{"type":"LineString","coordinates":[[9.171186,49.091191],[9.168744,49.091707],[9.163653,49.092108],[9.161928,49.092465],[9.160299,49.092939],[9.158439,49.094005],[9.156576,49.095317],[9.153782,49.099617],[9.15292,49.101712],[9.15284,49.104462],[9.153697,49.106977],[9.155075,49.10941],[9.161547,49.115788],[9.164749,49.117101]]}},{"type":"Feature","properties":{"osm_id":166367206,"name":"Neckarkanal Lauffen","waterway":"canal","verified":false,"source":"OSM snapshot 2026-07-28"},"geometry":{"type":"LineString","coordinates":[[9.161623,49.073046],[9.15794,49.075548],[9.157456,49.076296],[9.157486,49.077301],[9.158383,49.07814],[9.161265,49.079138]]}},{"type":"Feature","properties":{"osm_id":166367207,"name":"Neckar","waterway":"canal","verified":false,"source":"OSM snapshot 2026-07-28"},"geometry":{"type":"LineString","coordinates":[[9.16287,49.072239],[9.161623,49.073046]]}},{"type":"Feature","properties":{"osm_id":166367210,"name":"Neckar","waterway":"canal","verified":false,"source":"OSM snapshot 2026-07-28"},"geometry":{"type":"LineString","coordinates":[[9.1627,49.072129],[9.161453,49.072935]]}},{"type":"Feature","properties":{"osm_id":166367212,"name":"Neckar","waterway":"canal","verified":false,"source":"OSM snapshot 2026-07-28"},"geometry":{"type":"LineString","coordinates":[[9.161453,49.072935],[9.160346,49.073824]]}},{"type":"Feature","properties":{"osm_id":167040084,"name":"Neckar","waterway":"canal","verified":false,"source":"OSM snapshot 2026-07-28"},"geometry":{"type":"LineString","coordinates":[[9.151796,49.006448],[9.153058,49.006902]]}},{"type":"Feature","properties":{"osm_id":167040088,"name":"Neckar","waterway":"canal","verified":false,"source":"OSM snapshot 2026-07-28"},"geometry":{"type":"LineString","coordinates":[[9.154455,49.007537],[9.155508,49.008114]]}},{"type":"Feature","properties":{"osm_id":167040089,"name":"Neckar","waterway":"canal","verified":false,"source":"OSM snapshot 2026-07-28"},"geometry":{"type":"LineString","coordinates":[[9.153058,49.006902],[9.154455,49.007537]]}},{"type":"Feature","properties":{"osm_id":167040091,"name":"Neckar","waterway":"canal","verified":false,"source":"OSM snapshot 2026-07-28"},"geometry":{"type":"LineString","coordinates":[[9.152927,49.007043],[9.15432,49.007662]]}},{"type":"Feature","properties":{"osm_id":167040099,"name":"Neckar","waterway":"canal","verified":false,"source":"OSM snapshot 2026-07-28"},"geometry":{"type":"LineString","coordinates":[[9.15432,49.007662],[9.156681,49.008648],[9.157433,49.00962]]}},{"type":"Feature","properties":{"osm_id":167040100,"name":"Neckar","waterway":"river","verified":false,"source":"OSM snapshot 2026-07-28"},"geometry":{"type":"LineString","coordinates":[[9.192099,48.993341],[9.19161,48.990191],[9.191179,48.989489],[9.190503,48.988918],[9.187162,48.987129],[9.183487,48.98603],[9.179281,48.985326],[9.17722,48.985354],[9.175322,48.985636],[9.173766,48.986109],[9.172336,48.986917],[9.171257,48.988179],[9.170984,48.989484],[9.171032,48.990925],[9.171751,48.992415],[9.175186,48.996623],[9.175676,48.997357],[9.176185,48.998953],[9.175562,49.000519],[9.17402,49.002311],[9.173148,49.00303],[9.168856,49.00537],[9.165807,49.006251],[9.162583,49.006697],[9.160588,49.006326],[9.158976,49.005606],[9.156574,49.004172],[9.154066,49.00204],[9.153146,49.001544],[9.151185,49.001284]]}},{"type":"Feature","properties":{"osm_id":320699463,"name":"Neckar","waterway":"river","verified":false,"source":"OSM snapshot 2026-07-28"},"geometry":{"type":"LineString","coordinates":[[9.157433,49.00962],[9.158442,49.010493],[9.159772,49.012261],[9.160697,49.015482],[9.16016,49.016802],[9.159373,49.018011],[9.156857,49.021206]]}},{"type":"Feature","properties":{"osm_id":320699464,"name":"Neckar","waterway":"river","verified":false,"source":"OSM snapshot 2026-07-28"},"geometry":{"type":"LineString","coordinates":[[9.151185,49.001284],[9.149393,49.001468],[9.148103,49.00222],[9.147565,49.004379],[9.147831,49.005055],[9.148385,49.005705],[9.14913,49.006168],[9.152768,49.007874],[9.157433,49.00962]]}},{"type":"Feature","properties":{"osm_id":320699465,"name":"Neckar","waterway":"river","verified":false,"source":"OSM snapshot 2026-07-28"},"geometry":{"type":"LineString","coordinates":[[9.161265,49.079138],[9.166103,49.078373],[9.168545,49.078213],[9.16985,49.078314],[9.172866,49.079444],[9.174516,49.080381],[9.176371,49.081585],[9.177691,49.083005],[9.17849,49.084694],[9.178411,49.086192],[9.177762,49.08748],[9.176735,49.088822],[9.175384,49.089711],[9.171186,49.091191]]}},{"type":"Feature","properties":{"osm_id":320699470,"name":"Neckar","waterway":"river","verified":false,"source":"OSM snapshot 2026-07-28"},"geometry":{"type":"LineString","coordinates":[[9.166688,49.069036],[9.160401,49.072751]]}}]}